STARLINK-1171
1 45062U 20006U   26092.40279953  .00076154  00000+0  71622-3 0  9996
2 45062  53.0434 133.0730 0004406  42.5604 317.5752 15.66461905340707
